{"type": "FeatureCollection", "features": [{"type": "Feature", "properties": {"norad_id": 50032, "name": "COSMOS 1408 DEB", "group": "cosmos-1408-debris", "lat": 80.85266600620795, "lon": 174.94734829642132, "alt_km": 419.6306480036692, "timestamp": "2025-12-21T20:41:08.232260+00:00", "meta": {"OBJECT_NAME": "COSMOS 1408 DEB", "OBJECT_ID": "1982-092RU", "EPOCH": "2025-12-21T04:44:15.700416", "MEAN_MOTION": 15.45771995, "ECCENTRICITY": 0.00160807, "INCLINATION": 82.5635, "RA_OF_ASC_NODE": 49.8404, "ARG_OF_PERICENTER": 177.0061, "MEAN_ANOMALY": 183.1287, "EPHEMERIS_TYPE": 0, "CLASSIFICATION_TYPE": "U", "NORAD_CAT_ID": 50032, "ELEMENT_SET_NO": 999, "REV_AT_EPOCH": 22734, "BSTAR": 7.6660607e-05, "MEAN_MOTION_DOT": 3.769e-05, "MEAN_MOTION_DDOT": 0}, "tle": {"line1": "1 50032U 82092RU  25355.19740394  .00003769  00000+0  76661-4 0  9992", "line2": "2 50032  82.5635  49.8404 0016080 177.0061 183.1287 15.45771995227348"}}, "geometry": {"type": "Point", "coordinates": [174.94734829642132, 80.85266600620795]}}, {"type": "Feature", "properties": {"norad_id": 50058, "name": "COSMOS 1408 DEB", "group": "cosmos-1408-debris", "lat": -8.463988422660607, "lon": -119.10237315717893, "alt_km": 384.0734735942897, "timestamp": "2025-12-21T20:41:08.232276+00:00", "meta": {"OBJECT_NAME": "COSMOS 1408 DEB", "OBJECT_ID": "1982-092SW", "EPOCH": "2025-12-21T04:32:04.588800", "MEAN_MOTION": 15.64578574, "ECCENTRICITY": 0.00161275, "INCLINATION": 82.6126, "RA_OF_ASC_NODE": 60.4962, "ARG_OF_PERICENTER": 70.3199, "MEAN_ANOMALY": 289.9799, "EPHEMERIS_TYPE": 0, "CLASSIFICATION_TYPE": "U", "NORAD_CAT_ID": 50058, "ELEMENT_SET_NO": 999, "REV_AT_EPOCH": 22936, "BSTAR": 0.00024667562, "MEAN_MOTION_DOT": 0.00024013, "MEAN_MOTION_DDOT": 0}, "tle": {"line1": "1 50058U 82092SW  25355.18894200  .00024013  00000+0  24668-3 0  9999", "line2": "2 50058  82.6126  60.4962 0016127  70.3199 289.9799 15.64578574229365"}}, "geometry": {"type": "Point", "coordinates": [-119.10237315717893, -8.463988422660607]}}, {"type": "Feature", "properties": {"norad_id": 50404, "name": "COSMOS 1408 DEB", "group": "cosmos-1408-debris", "lat": 76.36172895173799, "lon": -8.697015842765108, "alt_km": 465.31572124506783, "timestamp": "2025-12-21T20:41:08.232287+00:00", "meta": {"OBJECT_NAME": "COSMOS 1408 DEB", "OBJECT_ID": "1982-092ADS", "EPOCH": "2025-12-21T13:53:39.497568", "MEAN_MOTION": 15.15068727, "ECCENTRICITY": 0.0168475, "INCLINATION": 82.2035, "RA_OF_ASC_NODE": 205.9751, "ARG_OF_PERICENTER": 168.5896, "MEAN_ANOMALY": 191.9235, "EPHEMERIS_TYPE": 0, "CLASSIFICATION_TYPE": "U", "NORAD_CAT_ID": 50404, "ELEMENT_SET_NO": 999, "REV_AT_EPOCH": 21327, "BSTAR": 0.0029249565, "MEAN_MOTION_DOT": 0.00079133, "MEAN_MOTION_DDOT": 0}, "tle": {"line1": "1 50404U 82092ADS 25355.57892937  .00079133  00000+0  29250-2 0  9996", "line2": "2 50404  82.2035 205.9751 0168475 168.5896 191.9235 15.15068727213275"}}, "geometry": {"type": "Point", "coordinates": [-8.697015842765108, 76.36172895173799]}}, {"type": "Feature", "properties": {"norad_id": 50621, "name": "COSMOS 1408 DEB", "group": "cosmos-1408-debris", "lat": -40.43547238425996, "lon": 58.29670575092607, "alt_km": 421.2347153588653, "timestamp": "2025-12-21T20:41:08.232297+00:00", "meta": {"OBJECT_NAME": "COSMOS 1408 DEB", "OBJECT_ID": "1982-092ALR", "EPOCH": "2025-12-21T05:26:16.339200", "MEAN_MOTION": 15.57069588, "ECCENTRICITY": 0.0029095, "INCLINATION": 82.5697, "RA_OF_ASC_NODE": 65.3437, "ARG_OF_PERICENTER": 121.8542, "MEAN_ANOMALY": 238.5551, "EPHEMERIS_TYPE": 0, "CLASSIFICATION_TYPE": "U", "NORAD_CAT_ID": 50621, "ELEMENT_SET_NO": 999, "REV_AT_EPOCH": 22382, "BSTAR": 0.00029679, "MEAN_MOTION_DOT": 0.00021958, "MEAN_MOTION_DDOT": 0}, "tle": {"line1": "1 50621U 82092ALR 25355.22657800  .00021958  00000+0  29679-3 0  9995", "line2": "2 50621  82.5697  65.3437 0029095 121.8542 238.5551 15.57069588223829"}}, "geometry": {"type": "Point", "coordinates": [58.29670575092607, -40.43547238425996]}}]}